[{"OBJECT_NAME":"STARLINK-5845","OBJECT_ID":"2023-088C","EPOCH":"2026-03-09T19:07:01.247808","MEAN_MOTION":15.02534824,"ECCENTRICITY":0.0001343,"INCLINATION":43.0052,"RA_OF_ASC_NODE":107.0828,"ARG_OF_PERICENTER":268.4424,"MEAN_ANOMALY":91.6264,"EPHEMERIS_TYPE":0,"CLASSIFICATION_TYPE":"U","NORAD_CAT_ID":57050,"ELEMENT_SET_NO":999,"REV_AT_EPOCH":15038,"BSTAR":1.9932039e-5,"MEAN_MOTION_DOT":6.6e-7,"MEAN_MOTION_DDOT":0},{"OBJECT_NAME":"PEGASUS DEB","OBJECT_ID":"1994-029ACT","EPOCH":"2026-03-09T11:29:04.934976","MEAN_MOTION":13.7018265,"ECCENTRICITY":0.06036208,"INCLINATION":81.5086,"RA_OF_ASC_NODE":254.696,"ARG_OF_PERICENTER":195.8993,"MEAN_ANOMALY":162.246,"EPHEMERIS_TYPE":0,"CLASSIFICATION_TYPE":"U","NORAD_CAT_ID":24985,"ELEMENT_SET_NO":999,"REV_AT_EPOCH":58552,"BSTAR":0.0023741539,"MEAN_MOTION_DOT":7.826e-5,"MEAN_MOTION_DDOT":0}]
